{"type": "FeatureCollection", "features": [ {"type": "Feature", "properties": {"norad_id": 31074, "name": "FENGYUN 1C DEB", "group": "fengyun-1c-debris", "lat": -41.50522167800131, "lon": 71.44875817711393, "alt_km": 810.4291807642912, "timestamp": "2025-12-10T11:33:53.665650+00:00", "meta": {"OBJECT_NAME": "FENGYUN 1C DEB", "OBJECT_ID": "1999-025BFU", "EPOCH": "2025-12-09T17:31:46.380288", "MEAN_MOTION": 14.14192893, "ECCENTRICITY": 0.0088289, "INCLINATION": 98.9579, "RA_OF_ASC_NODE": 258.7187, "ARG_OF_PERICENTER": 274.4199, "MEAN_ANOMALY": 84.689, "EPHEMERIS_TYPE": 0, "CLASSIFICATION_TYPE": "U", "NORAD_CAT_ID": 31074, "ELEMENT_SET_NO": 999, "REV_AT_EPOCH": 95537, "BSTAR": 0.0037257, "MEAN_MOTION_DOT": 7.335e-05, "MEAN_MOTION_DDOT": 0}, "tle": {"line1": "1 31074U 99025BFU 25343.73039792  .00007335  00000+0  37257-2 0  9990", "line2": "2 31074  98.9579 258.7187 0088289 274.4199  84.6890 14.14192893955379"}}, "geometry": {"type": "Point", "coordinates": [71.44875817711393, -41.50522167800131]}}, {"type": "Feature", "properties": {"norad_id": 31078, "name": "FENGYUN 1C DEB", "group": "fengyun-1c-debris", "lat": 49.010977586201726, "lon": -124.7412373046774, "alt_km": 737.5633735421334, "timestamp": "2025-12-10T11:33:53.665660+00:00", "meta": {"OBJECT_NAME": "FENGYUN 1C DEB", "OBJECT_ID": "1999-025BFY", "EPOCH": "2025-12-09T23:42:47.304000", "MEAN_MOTION": 14.22064781, "ECCENTRICITY": 0.0116983, "INCLINATION": 98.8683, "RA_OF_ASC_NODE": 44.4114, "ARG_OF_PERICENTER": 156.7857, "MEAN_ANOMALY": 327.2169, "EPHEMERIS_TYPE": 0, "CLASSIFICATION_TYPE": "U", "NORAD_CAT_ID": 31078, "ELEMENT_SET_NO": 999, "REV_AT_EPOCH": 96853, "BSTAR": 0.00082191, "MEAN_MOTION_DOT": 1.905e-05, "MEAN_MOTION_DDOT": 0}, "tle": {"line1": "1 31078U 99025BFY 25343.98804750  .00001905  00000+0  82191-3 0  9990", "line2": "2 31078  98.8683  44.4114 0116983 156.7857 327.2169 14.22064781968534"}}, "geometry": {"type": "Point", "coordinates": [-124.7412373046774, 49.010977586201726]}}, {"type": "Feature", "properties": {"norad_id": 31081, "name": "FENGYUN 1C DEB", "group": "fengyun-1c-debris", "lat": 33.16375513237267, "lon": -4.802433338954659, "alt_km": 901.3372330799084, "timestamp": "2025-12-10T11:33:53.665670+00:00", "meta": {"OBJECT_NAME": "FENGYUN 1C DEB", "OBJECT_ID": "1999-025BGB", "EPOCH": "2025-12-09T19:10:33.464352", "MEAN_MOTION": 14.06297336, "ECCENTRICITY": 0.0047321, "INCLINATION": 98.7706, "RA_OF_ASC_NODE": 0.3261, "ARG_OF_PERICENTER": 239.4006, "MEAN_ANOMALY": 298.8397, "EPHEMERIS_TYPE": 0, "CLASSIFICATION_TYPE": "U", "NORAD_CAT_ID": 31081, "ELEMENT_SET_NO": 999, "REV_AT_EPOCH": 96419, "BSTAR": 0.00021438, "MEAN_MOTION_DOT": 3.14e-06, "MEAN_MOTION_DDOT": 0}, "tle": {"line1": "1 31081U 99025BGB 25343.79899843  .00000314  00000+0  21438-3 0  9990", "line2": "2 31081  98.7706   0.3261 0047321 239.4006 298.8397 14.06297336964191"}}, "geometry": {"type": "Point", "coordinates": [-4.802433338954659, 33.16375513237267]}}, {"type": "Feature", "properties": {"norad_id": 31083, "name": "FENGYUN 1C DEB", "group": "fengyun-1c-debris", "lat": -8.271595937724433, "lon": 103.09117022453206, "alt_km": 673.8855618215866, "timestamp": "2025-12-10T11:33:53.665680+00:00", "meta": {"OBJECT_NAME": "FENGYUN 1C DEB", "OBJECT_ID": "1999-025BGD", "EPOCH": "2025-12-10T00:21:19.175328", "MEAN_MOTION": 14.61908986, "ECCENTRICITY": 0.0031057, "INCLINATION": 98.6463, "RA_OF_ASC_NODE": 101.3353, "ARG_OF_PERICENTER": 314.0812, "MEAN_ANOMALY": 100.7659, "EPHEMERIS_TYPE": 0, "CLASSIFICATION_TYPE": "U", "NORAD_CAT_ID": 31083, "ELEMENT_SET_NO": 999, "REV_AT_EPOCH": 97670, "BSTAR": 0.0041745, "MEAN_MOTION_DOT": 0.0002104, "MEAN_MOTION_DDOT": 0}, "tle": {"line1": "1 31083U 99025BGD 25344.01480527  .00021040  00000+0  41745-2 0  9994", "line2": "2 31083  98.6463 101.3353 0031057 314.0812 100.7659 14.61908986976703"}}, "geometry": {"type": "Point", "coordinates": [103.09117022453206, -8.271595937724433]}}, {"type": "Feature", "properties": {"norad_id": 31085, "name": "FENGYUN 1C DEB", "group": "fengyun-1c-debris", "lat": 11.911476957456792, "lon": -176.71793732900525, "alt_km": 730.6565718405054, "timestamp": "2025-12-10T11:33:53.665690+00:00", "meta": {"OBJECT_NAME": "FENGYUN 1C DEB", "OBJECT_ID": "1999-025BGF", "EPOCH": "2025-12-08T19:30:55.256256", "MEAN_MOTION": 14.30306251, "ECCENTRICITY": 0.00874885, "INCLINATION": 98.9846, "RA_OF_ASC_NODE": 183.472, "ARG_OF_PERICENTER": 29.4311, "MEAN_ANOMALY": 35.3324, "EPHEMERIS_TYPE": 0, "CLASSIFICATION_TYPE": "U", "NORAD_CAT_ID": 31085, "ELEMENT_SET_NO": 999, "REV_AT_EPOCH": 97660, "BSTAR": 0.00018881299, "MEAN_MOTION_DOT": 4.64e-06, "MEAN_MOTION_DDOT": 0}, "tle": {"line1": "1 31085U 99025BGF 25342.81313954  .00000464  00000+0  18881-3 0  9994", "line2": "2 31085  98.9846 183.4720 0087488  29.4311  35.3324 14.30306251976606"}}, "geometry": {"type": "Point", "coordinates": [-176.71793732900525, 11.911476957456792]}}, {"type": "Feature", "properties": {"norad_id": 31087, "name": "FENGYUN 1C DEB", "group": "fengyun-1c-debris", "lat": -80.50896125450099, "lon": 126.52041513653081, "alt_km": 596.9592450909995, "timestamp": "2025-12-10T11:33:53.665700+00:00", "meta": {"OBJECT_NAME": "FENGYUN 1C DEB", "OBJECT_ID": "1999-025BGH", "EPOCH": "2025-12-10T00:36:46.470240", "MEAN_MOTION": 14.60264078, "ECCENTRICITY": 0.0172177, "INCLINATION": 98.1004, "RA_OF_ASC_NODE": 4.4932, "ARG_OF_PERICENTER": 299.4939, "MEAN_ANOMALY": 89.106, "EPHEMERIS_TYPE": 0, "CLASSIFICATION_TYPE": "U", "NORAD_CAT_ID": 31087, "ELEMENT_SET_NO": 999, "REV_AT_EPOCH": 98730, "BSTAR": 0.00117, "MEAN_MOTION_DOT": 6.908e-05, "MEAN_MOTION_DDOT": 0}, "tle": {"line1": "1 31087U 99025BGH 25344.02553785  .00006908  00000+0  11700-2 0  9990", "line2": "2 31087  98.1004   4.4932 0172177 299.4939  89.1060 14.60264078987304"}}, "geometry": {"type": "Point", "coordinates": [126.52041513653081, -80.50896125450099]}}, {"type": "Feature", "properties": {"norad_id": 31088, "name": "FENGYUN 1C DEB", "group": "fengyun-1c-debris", "lat": 64.66852512883554, "lon": 23.978266519018025, "alt_km": 769.1811440670854, "timestamp": "2025-12-10T11:33:53.665710+00:00", "meta": {"OBJECT_NAME": "FENGYUN 1C DEB", "OBJECT_ID": "1999-025BGJ", "EPOCH": "2025-12-10T02:59:24.144864", "MEAN_MOTION": 14.28664181, "ECCENTRICITY": 0.0028785, "INCLINATION": 99.4104, "RA_OF_ASC_NODE": 44.1015, "ARG_OF_PERICENTER": 69.4049, "MEAN_ANOMALY": 320.4532, "EPHEMERIS_TYPE": 0, "CLASSIFICATION_TYPE": "U", "NORAD_CAT_ID": 31088, "ELEMENT_SET_NO": 999, "REV_AT_EPOCH": 96512, "BSTAR": 0.0021876, "MEAN_MOTION_DOT": 5.476e-05, "MEAN_MOTION_DDOT": 0}, "tle": {"line1": "1 31088U 99025BGJ 25344.12458501  .00005476  00000+0  21876-2 0  9996", "line2": "2 31088  99.4104  44.1015 0028785  69.4049 320.4532 14.28664181965129"}}, "geometry": {"type": "Point", "coordinates": [23.978266519018025, 64.66852512883554]}}, {"type": "Feature", "properties": {"norad_id": 31089, "name": "FENGYUN 1C DEB", "group": "fengyun-1c-debris", "lat": 51.98491684514446, "lon": -41.7456173930401, "alt_km": 928.3984483163094, "timestamp": "2025-12-10T11:33:53.665720+00:00", "meta": {"OBJECT_NAME": "FENGYUN 1C DEB", "OBJECT_ID": "1999-025BGK", "EPOCH": "2025-12-07T21:25:32.147616", "MEAN_MOTION": 13.88305057, "ECCENTRICITY": 0.02058957, "INCLINATION": 98.9488, "RA_OF_ASC_NODE": 124.1407, "ARG_OF_PERICENTER": 224.7678, "MEAN_ANOMALY": 291.3696, "EPHEMERIS_TYPE": 0, "CLASSIFICATION_TYPE": "U", "NORAD_CAT_ID": 31089, "ELEMENT_SET_NO": 999, "REV_AT_EPOCH": 67992, "BSTAR": 0.0012224374, "MEAN_MOTION_DOT": 1.69e-05, "MEAN_MOTION_DDOT": 0}, "tle": {"line1": "1 31089U 99025BGK 25341.89273319  .00001690  00000+0  12224-2 0  9991", "line2": "2 31089  98.9488 124.1407 0205895 224.7678 291.3696 13.88305057679922"}}, "geometry": {"type": "Point", "coordinates": [-41.7456173930401, 51.98491684514446]}}, {"type": "Feature", "properties": {"norad_id": 31090, "name": "FENGYUN 1C DEB", "group": "fengyun-1c-debris", "lat": 69.83397067924882, "lon": -66.45121310453783, "alt_km": 427.7102708605844, "timestamp": "2025-12-10T11:33:53.665730+00:00", "meta": {"OBJECT_NAME": "FENGYUN 1C DEB", "OBJECT_ID": "1999-025BGL", "EPOCH": "2025-12-09T17:51:45.036000", "MEAN_MOTION": 15.32856085, "ECCENTRICITY": 0.0056096, "INCLINATION": 98.9819, "RA_OF_ASC_NODE": 87.1431, "ARG_OF_PERICENTER": 142.9968, "MEAN_ANOMALY": 217.5159, "EPHEMERIS_TYPE": 0, "CLASSIFICATION_TYPE": "U", "NORAD_CAT_ID": 31090, "ELEMENT_SET_NO": 999, "REV_AT_EPOCH": 792, "BSTAR": 0.0024139, "MEAN_MOTION_DOT": 0.00081172, "MEAN_MOTION_DDOT": 0}, "tle": {"line1": "1 31090U 99025BGL 25343.74427125  .00081172  00000+0  24139-2 0  9996", "line2": "2 31090  98.9819  87.1431 0056096 142.9968 217.5159 15.32856085  7929"}}, "geometry": {"type": "Point", "coordinates": [-66.45121310453783, 69.83397067924882]}}, {"type": "Feature", "properties": {"norad_id": 31091, "name": "FENGYUN 1C DEB", "group": "fengyun-1c-debris", "lat": -67.77164652778025, "lon": -14.885462685524159, "alt_km": 906.670471959771, "timestamp": "2025-12-10T11:33:53.665740+00:00", "meta": {"OBJECT_NAME": "FENGYUN 1C DEB", "OBJECT_ID": "1999-025BGM", "EPOCH": "2025-12-10T04:47:50.826912", "MEAN_MOTION": 13.54141266, "ECCENTRICITY": 0.0290809, "INCLINATION": 99.2244, "RA_OF_ASC_NODE": 321.4211, "ARG_OF_PERICENTER": 335.4456, "MEAN_ANOMALY": 23.3063, "EPHEMERIS_TYPE": 0, "CLASSIFICATION_TYPE": "U", "NORAD_CAT_ID": 31091, "ELEMENT_SET_NO": 999, "REV_AT_EPOCH": 61605, "BSTAR": 0.0012568, "MEAN_MOTION_DOT": 1.075e-05, "MEAN_MOTION_DDOT": 0}, "tle": {"line1": "1 31091U 99025BGM 25344.19989383  .00001075  00000+0  12568-2 0  9993", "line2": "2 31091  99.2244 321.4211 0290809 335.4456  23.3063 13.54141266616056"}}, "geometry": {"type": "Point", "coordinates": [-14.885462685524159, -67.77164652778025]}}]}